[{"partner":"Body Fat Test San Diego","website":"http://www.bodyfattest.com/#!san-diego/c1nug"},{"partner":"BootCamp SD","website":"bootcampsd.com"},{"partner":"Cori-ography Dance","website":"www.coricompany.com"},{"partner":"January Wellness","website":"http://www.januarywellness.com"},{"partner":"The 30 Clean","website":"https://www.the30clean.com/","logo":"The30Clean_logo.jpg"},{"partner":"Dance of Liberation","website":"http://www.parashakti.org/dance-of-liberation/"},{"partner":"Hemalayaa","website":"http://www.hemalayaa.com/about/hemalayaas-bio/"},{"partner":"Oneness Within","website":"http://www.onenesswithin.com/"},{"partner":"A Time to Dance","street":"3982 30th St","city":"San Diego","zip":92104,"website":"www.atimetodancesandiego.com","location":{"lat":32.749951,"lng":-117.130147}},{"partner":"Agape Healing","street":"2221 Las Palmas Dr, Ste D","city":"Carlsbad","zip":92011,"website":"www.agapehealingcenter.com/","location":{"lat":33.117264,"lng":-117.271777}},{"partner":"Adam Winter Lifestyle","street":"1727 University Ave","city":"San Diego","zip":92103,"website":"www.adamwinterlifestyle.com","location":{"lat":32.748409,"lng":-117.147617}},{"partner":"Addie's Studio","street":"4440 Ingraham St","city":"San Diego","zip":92109,"website":"www.addiesstudio.com","location":{"lat":32.798637,"lng":-117.240504}},{"partner":"Ashley Lane Fitness","street":"1450 University Ave Ste 201","city":"San Diego","zip":92103,"website":"http://www.ashleylanefitness.com/","logo":"AshleyLaneFitness_logo2.jpg","location":{"lat":32.74854,"lng":-117.150109}},{"partner":"Balanced Fitness and Health","street":"1130 7th Ave.","city":"San Diego","zip":92101,"website":"balancedfitnesshealth.com","location":{"lat":32.717303,"lng":-117.15836}},{"partner":"Aerial Theory","street":"639 Hillhaven Dr","city":"Vista","zip":92081,"website":"www.aerialfitsd.com","location":{"lat":33.202419,"lng":-117.235633}},{"partner":"Barre 59","street":"7928 Ivanhoe Avenue","city":"La Jolla","zip":92037,"website":"http://www.barre59.com/","logo":"Barre59_logo.jpg","location":{"lat":32.847802,"lng":-117.272269}},{"partner":"Be_Fitness","street":"1882 El Norte Pkwy","city":"Escondido","zip":92026,"website":"http://www.befitnessck.com/","location":{"lat":33.154984,"lng":-117.125334}},{"partner":"AcuLife","street":"8950 Villa La Jolla Drive\n Suite B 212","city":"La Jolla","zip":92037,"website":"http://myaculife.com/","location":{"lat":32.865901,"lng":-117.233463}},{"partner":"Beyond Pilates - Santee","street":"9721 Mission Gorge Road","city":"Santee","zip":92071,"website":"http://beyond-pilates.com","location":{"lat":32.838617,"lng":-116.985704}},{"partner":"Black Sheep Yoga","street":"1828 S. Coast Hwy","city":"Oceanside","zip":92054,"website":"http://www.blacksheepyogastudio.com","location":{"lat":33.174165,"lng":-117.361302}},{"partner":"Bliss Paddle Yoga - Laguna Beach","street":"631 Cliff Dr","city":"Laguna Beach","zip":92651,"website":"www.blisspaddleyoga.com","location":{"lat":33.545491,"lng":-117.794841}},{"partner":"Bliss Paddle Yoga - San Diego","street":"3740 Mission Blvd","city":"San Diego","zip":92109,"website":"www.blisspaddleyoga.com","logo":"BlissPaddleYoga_Logo.jpg","location":{"lat":32.783417,"lng":-117.252661}},{"partner":"Body by Crystal","street":"3000 N Mission Bay Drive","city":"San Diego","zip":92109,"website":"http://bodybycrystalca.com","location":{"lat":32.798584,"lng":-117.218768}},{"partner":"Bootique Fitness","street":"600 Upas Street","city":"San Diego","zip":92111,"website":"http://bootiquefitness.com/","location":{"lat":32.74104,"lng":-117.159498}},{"partner":"Bliss Paddle Yoga - Newport Beach","street":"2824 Newport Blvd","city":"Newport Beach","zip":92663,"website":"www.blisspaddleyoga.com","location":{"lat":33.613688,"lng":-117.929568}},{"partner":"Big Bricks Training","street":"740 13th St #503","city":"San Diego","zip":92101,"website":"http://bigbrickstraining.com/","location":{"lat":32.713042,"lng":-117.152847}},{"partner":"Bootique Fitness - Hillcrest/Balboa Park","street":"5930 Mission Center Rd","city":"San Diego","zip":92123,"website":"www.booqituefitness.com","location":{"lat":32.782978,"lng":-117.153235}},{"partner":"Bird Rock Yoga","street":"910 Grand Ave #206","city":"San Diego","zip":92109,"website":"www.birdrockyoga.com","logo":"BirdRockYoga_Logo.jpg","location":{"lat":32.795274,"lng":-117.252508}},{"partner":"Breakthrough Healing Arts","street":"4852 Cass St.","city":"San Diego","zip":92109,"website":"http://www.breakthroughealing.org","location":{"lat":32.803156,"lng":-117.25361}},{"partner":"Bootique Fitness - Mission Valley Park","street":"8583 Aero Drive","city":"San Diego","zip":92123,"website":"http://bootiquefitness.com/","location":{"lat":32.809615,"lng":-117.142174}},{"partner":"Bootique Fitness - Mission Bay Park","street":"5930 Mission Center Rd","city":"San Diego","zip":92123,"website":"www.bootiquefitness.com","location":{"lat":32.782978,"lng":-117.153235}},{"partner":"Breakaway Training","street":"3386 Caminito Vasto","city":"La Jolla","zip":92037,"website":"http://breakaway-training.com/","location":{"lat":32.855055,"lng":-117.232648}},{"partner":"Cali Coast Elite","street":"2004 Hancock St","city":"San Diego","zip":92110,"website":"www.calicoastelite.com","location":{"lat":32.744067,"lng":-117.187713}},{"partner":"Chakra Pilates - Pt. Loma","street":"1310 Rosecrans St","city":"San Diego","zip":92106,"website":"http://www.chakrapilates.com/","logo":"ChakraPilates_Logo.jpg","location":{"lat":32.724001,"lng":-117.229799}},{"partner":"Champion Eyes Martial Arts","street":"3700 Oceanic Way, Suite 102","city":"Oceanside","zip":92056,"website":"http://www.championeyes.com/","location":{"lat":33.204442,"lng":-117.307586}},{"partner":"Bootique Fitness - La Jolla Park","street":"8333 Via Mallorca","city":"San Diego","zip":92037,"website":"www.bootiquefitness.com","location":{"lat":32.71576,"lng":-117.163817}},{"partner":"Core40 - Solana Beach","street":"437 South Highway 101 Suite 201","city":"Solana Beach","zip":92075,"website":"core40.com/solana-beach","location":{"lat":32.986972,"lng":-117.270622}},{"partner":"CrossFit Unsung","street":"13268 Poway Rd","city":"Poway","zip":92064,"website":"http://www.crossfitunsung.com/","location":{"lat":32.956535,"lng":-117.04272}},{"partner":"Cycology Fitness","street":"1465 Encinitas Blvd","city":"Encinitas","zip":92024,"website":"http://cycologysd.com/","location":{"lat":33.045767,"lng":-117.25714}},{"partner":"Dance 2 Fitness","street":"572 Stevens Avenue","city":"Solana Beach","zip":92075,"website":"www.dance2fitness.com","location":{"lat":32.989469,"lng":-117.260648}},{"partner":"Chilltonic- Encinitas","street":"191 N El Camino Real #210","city":"Encinitas","zip":92024,"website":"http://www.chiltonic.com/","logo":"Chiltonic_Logo.jpg","location":{"lat":33.049148,"lng":-117.259845}},{"partner":"Chilltonic- Hillcrest","street":"1040 University Ave b210","city":"San Diego","zip":92103,"website":"www.chiltonic.com","location":{"lat":32.748507,"lng":-117.154413}},{"partner":"Dang Good Yoga","street":"1440 S Escondido Blvd","city":"Escondido","zip":92025,"website":"http://danggoodyoga2.liveeditaurora.com/home#/today","location":{"lat":33.108253,"lng":-117.07568}},{"partner":"Core Body Pilates Plus","street":"12075 Carmel Mountain Road #203","city":"San Diego","zip":92128,"website":"corebodypilatesplus.com","location":{"lat":32.984301,"lng":-117.075551}},{"partner":"Cut Fitness OC","street":"30261 Tomas, Margarita","city":"Orange County","zip":92688,"website":"cutfitoc.com","location":{"lat":33.636849,"lng":-117.602764}},{"partner":"Dance Paw","street":"681 Encinitas Blvd #309","city":"Encinitas","zip":92024,"website":"http://www.dancepaw.com/","location":{"lat":33.048162,"lng":-117.278072}},{"partner":"De Leon Dynamics","street":"12335 World Trade Drive Suite 8","city":"San Diego","zip":92126,"website":"http://deleondynamics.com/","location":{"lat":32.987519,"lng":-117.070195}},{"partner":"Earn It Lifestyle & Fitness","street":"925 B st, Suite 307","city":"San Diego","zip":92101,"website":"http://www.earnitlifestyle.com/","location":{"lat":32.717803,"lng":-117.155908}},{"partner":"Eat.Drink.Yoga","street":"575 South Coast Hwy","city":"Encinitas","zip":92024,"website":"http://www.eatdrinkyoga.com","location":{"lat":33.045,"lng":-117.293709}},{"partner":"DavisFit","street":"1600 Vacation Road","city":"San Diego","zip":92109,"website":"http://www.davisfit.com/bootcamp.html","location":{"lat":32.774924,"lng":-117.235574}},{"partner":"EPIC Series","street":"1919 Grand Ave Suite 2F","city":"San Diego","zip":92109,"website":"http://www.epicseriesocr.com/","location":{"lat":32.799178,"lng":-117.23409}},{"partner":"Envie Fitness","street":"267 N El Camino Real","city":"Encinitas","zip":92024,"website":"www.enviefitness.com/","location":{"lat":33.053878,"lng":-117.261462}},{"partner":"Edible Alchemy","street":"2855 El Cajon Blvd, #4","city":"San Diego","zip":92104,"website":"www.edible-alchemy.net","location":{"lat":32.755235,"lng":-117.132351}},{"partner":"Eve Encinitas","street":"575 S Coast Hwy 101","city":"Encinitas","zip":92024,"website":"https://www.facebook.com/eveencinitas","location":{"lat":33.045,"lng":-117.293709}},{"partner":"Evolve Fusion Fitness - Mission Hills","street":"1618 W Lewis St","city":"San Diego","zip":92103,"website":"evolvefusion.com","logo":"EvolveFusion_Logo.jpg","location":{"lat":32.751745,"lng":-117.178248}},{"partner":"Float North County","street":"991 Lomas Santa Fe Dr","city":"Solana Beach","zip":92075,"website":"http://floatnorthcounty.com/","location":{"lat":32.995482,"lng":-117.251651}},{"partner":"Fitness West PB","street":"1880 Garnet Ave","city":"San Diego","zip":92109,"website":"www.FitnessWestPB.com","location":{"lat":32.800761,"lng":-117.236417}},{"partner":"Fitness Together Rancho Bernardo","street":"16389 Bernardo Center Dr","city":"San Diego","zip":92128,"website":"http://fitnesstogether.com/ranchobernardo","location":{"lat":33.012488,"lng":-117.079167}},{"partner":"Fortis Fitness and YOGALUX","street":"2712 Gateway Rd","city":"Carlsbad","zip":92009,"website":"http://fortisfast.com/","location":{"lat":33.128143,"lng":-117.250973}},{"partner":"Fit 2 Ripped","street":"6401 Clay Park","city":"San Diego","zip":92115,"website":"www.fit2ripped.com","logo":"Fit2Ripped.jpg","location":{"lat":32.703283,"lng":-117.12446}},{"partner":"From the Heart of Tara","street":"Camino Del Mar","city":"Del Mar","zip":92014,"website":"http://www.fromtheheartoftara.com/","location":{"lat":32.97681,"lng":-117.2692895}},{"partner":"Get KellyFit","street":"744 Marsolan","city":"Solana Beach","zip":92075,"website":"getkellyfit.com","location":{"lat":32.982713,"lng":-117.267316}},{"partner":"Gemini Fit","street":"742 Genevieve St","city":"Solana Beach","zip":92075,"website":"www.geminicompletefitness.com","logo":"gemini.jpg","location":{"lat":32.989364,"lng":-117.258752}},{"partner":"Grinder Gym","street":"1013 Morena Blvd","city":"San Diego","zip":92110,"website":"grindergymsandiego.com","location":{"lat":32.767267,"lng":-117.19907}},{"partner":"Evolve Yoga","street":"687 S Coast Hwy 101 #155","city":"Encinitas","zip":92024,"website":"http://www.evolveyoga.fit/","location":{"lat":33.043802,"lng":-117.293543}},{"partner":"Foundation Yoga","street":"140 Loma Santa Fe, Suite 100","city":"Solana Beach","zip":92075,"website":"www.foundationyoga.com","location":{"lat":32.989258,"lng":-117.272469}},{"partner":"Hapa Yoga and Fitness- Mission Valley","street":"4242Camino De Rio N","city":"San Diego","zip":92108,"website":"www.hapayoga.com","location":{"lat":32.71576,"lng":-117.163817}},{"partner":"Hapa Yoga and Fitness- Eastlake","street":"2334 Proctor Valley Rd, #101","city":"Chula Vista","zip":91914,"website":"http://www.hapayoga.com/","location":{"lat":32.661678,"lng":-116.97095}},{"partner":"Higly Fit Martial Arts","street":"6064 Corte Del Cedro","city":"Carlsbad","zip":92011,"website":"http://www.alexhigley.com/","location":{"lat":33.125237,"lng":-117.272644}},{"partner":"Indie Yoga","street":"1857 bacon st","city":"San Diego","zip":92107,"website":"http://indieyogasd.com/","logo":"IndieYoga_Logo.jpg","location":{"lat":32.746301,"lng":-117.251546}},{"partner":"Heal by Hand Wellness Center","street":"9474 Kearny Villa Road #113","city":"San Diego","zip":92126,"website":"http://healbyhand.com/","location":{"lat":32.89575,"lng":-117.12019}},{"partner":"Jazzercise Mira Mesa","street":"11048 Ice Skate Place","city":"San Diego","zip":92126,"website":"http://jcls.jazzercise.com/facility/jazzercise-mira-mesa","location":{"lat":32.921379,"lng":-117.122234}},{"partner":"Jazzercise Pacific Beach-Soledad Club","street":"5050 Soledad Rd..","city":"San Diego","zip":92109,"website":"http://jcls.jazzercise.com/facility/soledad-club","location":{"lat":32.809939,"lng":-117.238886}},{"partner":"High Heel Golfer","street":"9710 Scranton Rd #160","city":"San Diego","zip":92121,"website":"https://highheelgolfer.com/","location":{"lat":32.897341,"lng":-117.202802}},{"partner":"Implicit Cycling","street":"4780 Mission Gorge Place\n STE C (Upper Level)","city":"San Diego","zip":92120,"website":"http://www.implicitcycling.com/","location":{"lat":32.800982,"lng":-117.25688}},{"partner":"Integrated Massage Therapies","street":"312 S. Cedros Ave.\n #206","city":"Solana Beach","zip":92075,"website":"http://davidolivermassage.weebly.com/","location":{"lat":32.988595,"lng":-117.26977}},{"partner":"Janae Luxe Studio","street":"719 Tenth Ave","city":"San Diego","zip":92101,"website":"http://www.janaeluxestudio.com/","location":{"lat":32.712813,"lng":-117.155599}},{"partner":"La Vie Dance & Culture","street":"325 W Washington St","city":"San Diego","zip":92103,"website":"http://lavie.dance/","location":{"lat":32.749815,"lng":-117.16677}},{"partner":"Karma Spa","street":"2614 El Camino Real","city":"Carlsbad","zip":92103,"website":"www.karmamassagespa.com/","location":{"lat":33.176157,"lng":-117.325978}},{"partner":"Nature's Whisper School","street":"4205 Park Blvd","city":"San Diego","zip":92103,"website":"http://joliecash.com/","location":{"lat":32.754321,"lng":-117.146256}},{"partner":"Monarch Yoga","street":"624 Broadway Suite 302","city":"San Diego","zip":92101,"website":"www.monarchyoga.co","location":{"lat":32.715748,"lng":-117.158954}},{"partner":"Mt. Yoga","street":"12234 Poway Road","city":"Poway","zip":92064,"website":"http://mtyoga.org/","location":{"lat":32.951515,"lng":-117.065918}},{"partner":"MUV Carlsbad Physical Therapy & Pilates","street":"5650 El Camino Real, Suite 120","city":"Carlsbad","zip":92008,"website":"muvphysicaltherapy.com/","location":{"lat":33.139098,"lng":-117.274887}},{"partner":"NXPT Fit","street":"8148 Ronson Rd.","city":"San Diego","zip":92111,"website":"http://www.nxptfit.com/","logo":"NXPT_logo.jpg","location":{"lat":32.829096,"lng":-117.147667}},{"partner":"Mizuta & Associates Physical Therapy","street":"2555 Camino Del Rio S #102","city":"San Diego","zip":92108,"website":"www.mizutapt.com/","location":{"lat":32.769429,"lng":-117.137318}},{"partner":"P.U.R.E Yoga","street":"535 Encinitas Blvd\n Suite 105","city":"Encinitas","zip":92024,"website":"http://www.pureyogaencinitas.com/","location":{"lat":33.046964,"lng":-117.280121}},{"partner":"Party Fitness Studio","street":"4659 Mission Gorge Place, Suite B","city":"San Diego (SDSU)","zip":92120,"website":"www.partyzumba.com","location":{"lat":32.78268,"lng":-117.092838}},{"partner":"Om Spot","street":"2085 Beryl Street","city":"San Diego","zip":92109,"website":"https://www.facebook.com/OMSPOTSD","location":{"lat":32.808375,"lng":-117.23358}},{"partner":"On Track Wellness","street":"3165 Rosecrans St","city":"San Diego","zip":92110,"website":"http://uskasandiego.com/","location":{"lat":32.746079,"lng":-117.210684}},{"partner":"Point Loma Sports Club","street":"2751 Roosevelt Rd","city":"San Diego","zip":92106,"website":"www.plsportsclub.com/","logo":"PointLomaFitness_Logo.jpg","location":{"lat":32.736674,"lng":-117.213454}},{"partner":"Performance Pilates","street":"560 Sixth Ave","city":"San Diego","zip":9201,"website":"http://www.performancepilatessd.com/","location":{"lat":32.711067,"lng":-117.159221}},{"partner":"Pukka Pilates & Physical Therapy-Scripps Ranch","street":"12030 Scripps Summit Drive, Suite E","city":"San Diego","zip":92131,"website":"http://pukkapilatesandpt.com/","location":{"lat":32.938251,"lng":-117.100778}},{"partner":"Poway Pilates","street":"14053 Midland Rd","city":"Poway","zip":92064,"website":"http://www.powaypilates.net/","location":{"lat":32.968273,"lng":-117.036159}},{"partner":"Pilates Plus PB","street":"1015 Turquoise St #1","city":"San Diego","zip":92109,"website":"http://pilatespluspb.com/","location":{"lat":32.809519,"lng":-117.255151}},{"partner":"Pure Motion Fitness","street":"10175 Rancho Carmel Drive","city":"San Diego","zip":92128,"website":"http://www.puremotionfitness.com/about/","location":{"lat":32.966065,"lng":-117.090039}},{"partner":"Rhythm + Power","street":"161 S. Hwy 101","city":"Solana Beach","zip":92075,"website":"http://rhythmandpower.com/","location":{"lat":32.991132,"lng":-117.271565}},{"partner":"Ride On SD","street":"2705 Garnet Ave","city":"San Diego","zip":92109,"website":"http://www.rideonindoorcycling.com/","location":{"lat":32.80563,"lng":-117.220767}},{"partner":"Riffs Studio","street":"5510 La Jolla Blvd","city":"La Jolla","zip":92037,"website":"www.riffsstudio.com","logo":"riffs-studio-logo.jpg","location":{"lat":32.812754,"lng":-117.268586}},{"partner":"Pukka Pilates & Physical Therapy Carmel Valley","street":"7805 Highlands Village Pl g101, San Diego, CA 92129","city":"San Diego","zip":92129,"website":"http://pukkapilatesandpt.com/","location":{"lat":32.962261,"lng":-117.155112}},{"partner":"Revolution Fitness","street":"7580 Fay Ave #101","city":"La Jolla","zip":92037,"website":"revolutionlajolla.com","location":{"lat":32.841689,"lng":-117.274229}},{"partner":"San Diego Core Fitness","street":"3030 Suncrest Drive","city":"San Diego","zip":92116,"website":"http://www.sandiegocorefitness.com/","location":{"lat":32.76395,"lng":-117.129565}},{"partner":"Reproductive Wellness","street":"2820 Camino Del Rio S #104","city":"San Diego","zip":92108,"website":"reproductivewellness.com","location":{"lat":32.770192,"lng":-117.133636}},{"partner":"Shanti Kitti Yoga","street":"3365 Mission Ave Suite I","city":"Oceanside","zip":92058,"website":"http://shantikittiyoga.com/","location":{"lat":33.218204,"lng":-117.341229}},{"partner":"Shock Fitness","street":"4150 Mission Blvd","city":"San Diego","zip":92109,"website":"http://shockfitness.com/","location":{"lat":32.79215,"lng":-117.254149}},{"partner":"SD Flexx - Playa Pacifica Park","street":"Playa Pacifica Park","city":"San Diego","zip":92109,"website":"http://www.sdflexx.com/home.html","location":{"lat":32.71576,"lng":-117.163817}},{"partner":"Studio Barre Mission Hills","street":"321 W Washington Street","city":"San Diego","zip":92103,"website":"http://studiobarre.com/missionhills/","location":{"lat":32.749814,"lng":-117.167279}},{"partner":"Studio Barre - Carlsbad","street":"7720 El Camino Real","city":"Carlsbad","zip":92009,"website":"studiobarre.com","logo":"StudioBarre_Logo.jpg","location":{"lat":33.082265,"lng":-117.2668}},{"partner":"South Park Fitness","street":"2211 30th st","city":"San Diego","zip":92104,"website":"www.southparkfitness.com","location":{"lat":32.728918,"lng":-117.130169}},{"partner":"Studio Sweat","street":"10804 Willow Ct","city":"San Diego","zip":92127,"website":"http://www.studiosweat.com/","logo":"StudioSweat_logo.jpg","location":{"lat":33.014711,"lng":-117.101547}},{"partner":"San Diego Premier Training","street":"6451 El Camino Real #2","city":"Carlsbad","zip":92009,"website":"http://sandiegopremiertraining.com/","location":{"lat":33.116812,"lng":-117.269774}},{"partner":"Surf You To to the Moon","street":"610 Emerald St","city":"Pacific Beach","zip":92109,"website":"www.surfyoutothemoon.com","location":{"lat":32.798198,"lng":-117.257091}},{"partner":"Tango Del Rey","street":"3567 Del Rey St","city":"San Diego","zip":92109,"website":"www.tangodelrey.com","location":{"lat":32.803658,"lng":-117.214336}},{"partner":"Syntruvia","street":"4780 Mission Gorge Pl Suite C","city":"San Diego","zip":92120,"website":"http://www.syntruvia.com/","location":{"lat":32.781473,"lng":-117.091975}},{"partner":"Sweathaus","street":"10770 Thornmint Rd","city":"San Diego","zip":92127,"website":"http://sweathaus.com/","logo":"Sweathaus_logo.jpg","location":{"lat":33.017412,"lng":-117.102531}},{"partner":"The Emerald Courtyard","street":"3455 Camino Del Rio S","city":"San Diego","zip":92108,"website":"emeraldcourtyard.com","location":{"lat":32.777313,"lng":-117.119332}},{"partner":"The House of Yogi - Point Loma","street":"3954 West Point Loma Blvd, Suite B","city":"San Diego","zip":92110,"website":"http://www.thehouseofyogi.com/","location":{"lat":32.75427,"lng":-117.222293}},{"partner":"The House of Yogi - East Village","street":"1227 J Street","city":"San Diego","zip":92101,"website":"www.thehouseofyogi.com","logo":"house_of_yogi.jpg","location":{"lat":32.709405,"lng":-117.153192}},{"partner":"TriPower Yoga","street":"2183 Bacon St","city":"San Diego","zip":92107,"website":"www.tripoweryoga.org/","location":{"lat":32.751861,"lng":-117.246758}},{"partner":"The Curious Fork","street":"512 Via De La valle #102","city":"Solana Beach","zip":92075,"website":"www.thecuriousfork.com","location":{"lat":32.980234,"lng":-117.260622}},{"partner":"The Little Yoga Studio","street":"702 Ash St","city":"San Diego","zip":92101,"website":"www.thelittleyogastudiosd.com","logo":"TheLittleYogaStudio_Logo.jpg","location":{"lat":32.719905,"lng":-117.157903}},{"partner":"The Dailey Method - Carlsbad","street":"1905 Calle Barcelona #227","city":"Carlsbad","zip":92009,"website":"www.thedaileymethod.com","location":{"lat":33.070703,"lng":-117.267468}},{"partner":"The Fit Mill","street":"5617 Paseo del Norte #222","city":"Carlsbad","zip":92008,"website":"http://www.thefitmill.com/","location":{"lat":33.126472,"lng":-117.322977}},{"partner":"VIDA Pilates Studio UC","street":"3202 GOVERNOR DRIVE SUITE #209/210","city":"San Diego","zip":92122,"website":"http://vidapilatesstudios.com/","location":{"lat":32.851201,"lng":-117.215297}},{"partner":"Versatile Fitness","street":"4340 Genesee Ave,","city":"San Diego","zip":92117,"website":"http://www.versatilefit.com","location":{"lat":32.822487,"lng":-117.18381}},{"partner":"Trilogy Sactuary","street":"7650 Girard Ave #400","city":"La Jolla","zip":92037,"website":"http://trilogysanctuary.com/","location":{"lat":32.843101,"lng":-117.273375}},{"partner":"VIDA Pilates La Jolla","street":"702 Pearl St","city":"La Jolla","zip":92037,"website":"http://vidapilatesstudios.com/","location":{"lat":32.839746,"lng":-117.275785}},{"partner":"Volare: Pole Art & Aerial Yoga Studio","street":"5026 Cass St","city":"San Diego","zip":92109,"website":"http://www.volarepolestudio.com/","location":{"lat":32.806466,"lng":-117.25462}},{"partner":"Wellness Studio of Santee","street":"8622 Argent St","city":"Santee","zip":92071,"website":"http://wellnessstudiosantee.com/","location":{"lat":32.831986,"lng":-116.9897}},{"partner":"Xplicit Fitness","street":"4780 Mission Gorge Pl","city":"San Diego","zip":92120,"website":"www.xplicitfitness.com","logo":"Xplicit_logo.jpg","location":{"lat":32.781473,"lng":-117.091975}},{"partner":"Wired Fitness Carmel Valley-Del Mar","street":"3777 TOWNSGATE DR.,","city":"San Diego","zip":92130,"website":"http://wiredfitness.com/","location":{"lat":32.949097,"lng":-117.233873}},{"partner":"Wired Fitness-Mission Bay","street":"1322 E. MISSION BAY DRIVE","city":"San Diego","zip":92109,"website":"http://wiredfitness.com/","location":{"lat":32.771084,"lng":-117.20776}},{"partner":"YG Studios","street":"3200 Camino Del Mar","city":"Del Mar","zip":92014,"website":"ygstudios.com","location":{"lat":32.97682,"lng":-117.2692895}},{"partner":"Yoga 80 - Carlsbad","street":"6120 Paseo Del Norte","city":"Carlsbad","zip":92011,"website":"http://yoga80.com/locations/carlsbad/","logo":"yoga80_Logo.jpg","location":{"lat":33.119018,"lng":-117.318829}},{"partner":"Wired Fitness-Solana Ranch Park","street":"SOLANA RANCH PARK","city":"San Diego","zip":92130,"website":"http://wiredfitness.com/","location":{"lat":32.716949,"lng":-117.02951}},{"partner":"Yoga 80 - Sorrento Valley","street":"10999 Sorrento Valley Rd","city":"San Diego","zip":92121,"website":"www.yoga80.com","location":{"lat":32.900941,"lng":-117.222832}},{"partner":"Yoga Loft","street":"1112 Ocean Dr","city":"Manhattan Beach","zip":90266,"website":"http://www.yogaloftsd.com/","location":{"lat":33.883965,"lng":-118.411052}},{"partner":"Z Fitness","street":"9823 Pacific Heights Blvd","city":"San Diego","zip":92121,"website":"www.zfitnesssandiego.com","location":{"lat":32.899504,"lng":-117.188927}},{"partner":"Zoom Fitness and Pilates Studio","street":"8222 Vickers St","city":"San Diego","zip":92111,"website":"www.zoomfit.com","location":{"lat":32.82728,"lng":-117.148399}},{"partner":"Yoga Del Mar","street":"2652 Del Mar Heights Rd","city":"DelMar","zip":92014,"website":"http://yogadelmar.com/","location":{"lat":32.949178,"lng":-117.245879}},{"partner":"Yoga Munkey","street":"410 S Santa Fe Ave #105","city":"Vista","zip":92084,"website":"www.yogamunkey.com/","location":{"lat":33.198288,"lng":-117.240652}},{"partner":"AIR LA","street":"8474 West 3rd Street","city":"Los Angeles","zip":90048,"website":"http://www.airfitnow.com/","logo":"AIR_LA_Logo.jpg","location":{"lat":34.073254,"lng":-118.375375}},{"partner":"Balance Fitness Studio","street":"3916 Sepulveda Blvd","city":"Torrance","zip":90505,"website":"http://www.balancetyn.com/","location":{"lat":33.825753,"lng":-118.354828}},{"partner":"Art Flying Yoga - Torrance","street":"24411 Hawthorne Blvd.","city":"Torrance","zip":90505,"website":"http://www.artyogastudio.org/","location":{"lat":33.80135,"lng":-118.351202}},{"partner":"Yoga With Shawna","street":"723 Felspar Street (Beachfront at Tower 23)","city":"San Diego","zip":92109,"website":"http://www.yogawithshawna.com/","location":{"lat":32.797301,"lng":-117.256709}},{"partner":"30Fifteen","street":"1336 Electric Ave, First Floor Studio","city":"Venice","zip":90291,"website":"http://www.30fifteenthestudio.com/#intro","location":{"lat":33.991222,"lng":-118.46617}},{"partner":"Boogiezone Utopia","street":"1951 West Carson Street","city":"Torrance","zip":90501,"website":"http://www.boogiezoneutopia.com","logo":"BoogzieZone_Logo.jpg","location":{"lat":33.831415,"lng":-118.315602}},{"partner":"Ballet Bodies","street":"8376 Beverly Blvd","city":"Los Angeles","zip":90048,"website":"http://www.balletbodies.com/","location":{"lat":34.076043,"lng":-118.372686}},{"partner":"Aerial Warehouse","street":"3961 Sepulveda Blvd #100","city":"Culver City","zip":90230,"website":"http://aerialwarehouse.com/","location":{"lat":34.00963,"lng":-118.414606}},{"partner":"Beach Yoga with Brad","street":"11927 Kiowa Ave #2","city":"Los Angeles","zip":90049,"website":"http://www.bradkeimach.com/","location":{"lat":34.047977,"lng":-118.466333}},{"partner":"Brooklyn Bridge Boot Camp LA","street":"851 Alma Real Dr","city":"Pacific Palisades","zip":90272,"website":"http://www.brooklynbridgebootcamp.com/LA","location":{"lat":34.04392,"lng":-118.5244}},{"partner":"Centre Fitness","street":"1015 Mission Street","city":"South Pasadena","zip":91030,"website":"http://centre.fitness/","location":{"lat":34.115754,"lng":-118.15642}},{"partner":"CardioBody Fitness","street":"14440 MAGNOLIA BLVD","city":"Sherman Oaks","zip":91423,"website":"http://cardiobodyfitness.com/","location":{"lat":34.164858,"lng":-118.447958}},{"partner":"CrossFit Santa Monica","street":"2433 Main Street","city":"Santa Monica","zip":90405,"website":"http://crossfitsantamonica.com/","logo":"CROSSFIT-SM-Logo.jpg","location":{"lat":34.00378,"lng":-118.485381}},{"partner":"Dragonfly Cycling","street":"4455 Van Nuys Blvd","city":"Sherman Oaks","zip":91403,"website":"http://www.dragonfly-cycling.com/","location":{"lat":34.152501,"lng":-118.44869}},{"partner":"Elite Physiques","street":"4207 Del Rey Ave","city":"Marina Del Rey","zip":90292,"website":"http://www.elitephysiquesla.com/","location":{"lat":33.9871,"lng":-118.443795}},{"partner":"Downtown Dance and Movement","street":"1144 South Hope Street","city":"Los Angeles","zip":90015,"website":"http://downtowndancela.com/","location":{"lat":34.041223,"lng":-118.263988}},{"partner":"Every Body's Pilates & Fitness","street":"1530 Cravens Avenue","city":"Torrance","zip":90501,"website":"http://www.everybodyspilates.com/","location":{"lat":33.833459,"lng":-118.316611}},{"partner":"Bands and Body","street":"1725 Ocean Front Walk #501","city":"Santa Monica","zip":90401,"website":"bandsandbody.com","location":{"lat":34.008104,"lng":-118.493455}},{"partner":"Coedynamics","street":"500 S Sepulveda Blvd #302","city":"Manhattan Beach","zip":90266,"website":"http://coe-dynamics.com","location":{"lat":33.875027,"lng":-118.395905}},{"partner":"Evoke Yoga","street":"212 W 7th St","city":"Los Angeles","zip":90014,"website":"http://www.evokeyoga.com/","location":{"lat":34.044822,"lng":-118.25278}},{"partner":"Fight Bike","street":"423 S Fairfax Ave","city":"Los Angeles","zip":90036,"website":"http://www.fightbikefitness.com/","location":{"lat":34.069267,"lng":-118.36141}},{"partner":"Infuse Wellness","street":"3306 Pico Blvd.","city":"Santa Monica","zip":90405,"website":"http://iwvitaminiv.com/","logo":"Infuse_Wellness_Logo.jpg","location":{"lat":34.027162,"lng":-118.454706}},{"partner":"Finergy Cycle","street":"22522 Ventura Blvd.","city":"Woodland Hills","zip":91364,"website":"http://www.finergycrosstrain.com/","location":{"lat":34.167866,"lng":-118.617446}},{"partner":"ElliptiFit","street":"11870 Santa Monica Blvd #207","city":"Los Angeles","zip":90025,"website":"http://elliptifit.com/","logo":"ElliptiFit_Logo.jpg","location":{"lat":34.042205,"lng":-118.459623}},{"partner":"Life Yoga Garden","street":"306 Pico Boulevard","city":"Santa Monica","zip":90405,"website":"http://lifefoodorganic.com/lifefood-yoga/","location":{"lat":34.009115,"lng":-118.488009}},{"partner":"Iron Boxing Santa Monica","street":"1919 Broadway","city":"Santa Monica","zip":90404,"website":"http://ironla.com/boxing/","location":{"lat":34.026988,"lng":-118.478912}},{"partner":"Love Yoga Venice","street":"835 Lincoln Blvd","city":"Venice","zip":90291,"website":"http://www.loveyogaspace.com/","location":{"lat":33.998949,"lng":-118.462911}},{"partner":"Lock Box LA","street":"5925 W Pico Blvd","city":"Los Angeles","zip":90035,"website":"http://lockboxla.com/","logo":"LockBox_LA_Logo.jpg","location":{"lat":34.051856,"lng":-118.368532}},{"partner":"Intuitive Touch And Wellness","street":"12732 Washington Blvd. Ste C","city":"Los Angeles","zip":90066,"website":"http://intuitivetouchandwellness.com/","location":{"lat":34.004315,"lng":-118.414544}},{"partner":"Iron Boxing Brentwood","street":"11601 Wilshire Blvd #105","city":"Los Angeles","zip":90025,"website":"http://ironla.com/boxing/","logo":"Iron_Boxing_Logo.jpg","location":{"lat":34.050463,"lng":-118.459649}},{"partner":"Moore Dancing","street":"11943 Montana Ave.","city":"Los Angeles","zip":90049,"website":"www.mooredancing.com","location":{"lat":34.051513,"lng":-118.47134}},{"partner":"PK Wellness","street":"2110 Wilshire Blvd","city":"Santa Monica","zip":90403,"website":"http://www.pkwellnessstudio.com/","location":{"lat":34.032325,"lng":-118.48201}},{"partner":"Pilates Place","street":"1506 Montana Ave","city":"Santa Monica","zip":90403,"website":"http://www.pilates-place.com/","location":{"lat":34.033145,"lng":-118.494022}},{"partner":"PLATEFIT","street":"309 N Kings Rd","city":"Los Angeles","zip":90048,"website":"http://www.platefit.co/","location":{"lat":34.07652,"lng":-118.372133}},{"partner":"Punch Brentwood","street":"11943 Montana Ave","city":"Los Angeles","zip":90049,"website":"http://www.punchbrentwood.com/","location":{"lat":34.051513,"lng":-118.47134}},{"partner":"Mind Muscle Fitness","street":"650 N La Peer Ave.","city":"Los Angeles","zip":90069,"website":"http://westhollywoodbootcamp.com/","location":{"lat":34.081959,"lng":-118.386605}},{"partner":"re:YOGA Therapy + Wellness","street":"10001 Venice Blvd","city":"Los Angeles","zip":90034,"website":"www.reyogatherapy.com","location":{"lat":34.022734,"lng":-118.400006}},{"partner":"Sandpiper Pilates","street":"522 Wilshire Blvd","city":"Santa Monica","zip":90407,"website":"sandpiperpilates.com","location":{"lat":34.020289,"lng":-118.496847}},{"partner":"Renew Juicery Wellness Center","street":"12460 W Washington Blvd","city":"Los Angeles","zip":90066,"website":"renewjuicery.com/","logo":"Renew-Juicery-Wellness-Center_Logo.jpg","location":{"lat":33.996839,"lng":-118.429292}},{"partner":"Sandbox Fitness West Hollywood","street":"13557 Ventura blvd","city":"Sherman Oaks","zip":91423,"website":"http://www.sandbox-fitness.com/","location":{"lat":34.147674,"lng":-118.429092}},{"partner":"Sandbox Fitness - West Hollywood","street":"8317 Beverly Blvd","city":"Los Angeles","zip":90048,"website":"http://sandbox-fitness.com/west-hollywood/","location":{"lat":34.076055,"lng":-118.370654}},{"partner":"SoCal Hot Yoga","street":"11950 San Vicente Blvd. Suite 107","city":"Los Angeles","zip":90049,"website":"http://socalhotyoga.com/","location":{"lat":34.052294,"lng":-118.471776}},{"partner":"The Springs","street":"608 Mateo St","city":"Los Angeles","zip":90021,"website":"thespringsla.com","logo":"The Springs_Logo.jpg","location":{"lat":34.037599,"lng":-118.232633}},{"partner":"The Training Loft WEHO","street":"307 S Orlando Ave,","city":"Los Angeles","zip":90048,"website":"http://thetrainingloftweho.com/","location":{"lat":34.071168,"lng":-118.373449}},{"partner":"Sweat City Fitness Marina Del Rey","street":"3007 W. Washington Blvd #112","city":"Marina Del Rey","zip":90292,"website":"http://sweatcityfitness.com/","location":{"lat":33.98384,"lng":-118.451422}},{"partner":"The Training Studeo","street":"371 N La Cienega Blvd","city":"West Hollywood","zip":90048,"website":"http://www.liddyhealthandfitness.com/","location":{"lat":34.078018,"lng":-118.376587}},{"partner":"The Bridge Mindbody Movement","street":"1820 Industrial st. #102B","city":"Los Angeles","zip":90021,"website":"http://www.thebridgembm.com/","location":{"lat":34.035804,"lng":-118.233787}},{"partner":"Street Workout Academy","street":"828 Pico Blvd #1","city":"Santa Monica","zip":90405,"website":"http://streetworkoutacademy.com/","location":{"lat":34.012794,"lng":-118.481905}},{"partner":"Unlimited Fitness-Hermosa Beach","street":"3219 Manhattan Ave","city":"Hermosa Beach","zip":90254,"website":"http://www.UFITSB.com","location":{"lat":33.876084,"lng":-118.406337}},{"partner":"Sweat City Fitness Santa Monica","street":"3435 Ocean Park Blvd #206","city":"Santa Monica","zip":90405,"website":"www.sweatcityfitness.com","location":{"lat":34.022814,"lng":-118.449211}},{"partner":"Training Mate","street":"7825 Santa Monica Blvd","city":"Los Angeles","zip":90046,"website":"trainingmatela.com","location":{"lat":34.090854,"lng":-118.359811}},{"partner":"Veda Yoga Center","street":"9349 Venice Blvd","city":"Culver City","zip":90232,"website":"http://www.vedayogacenter.com/","location":{"lat":34.025808,"lng":-118.394666}},{"partner":"Yoga Nest Venice","street":"38 Washington Blvd.","city":"Marina del Rey","zip":90292,"website":"http://yoganestvenice.com/","location":{"lat":33.979709,"lng":-118.465721}},{"partner":"Vie2 Cycling","street":"1708 19th Street","city":"Santa Monica","zip":90404,"website":"http://vie2cycling.com/","location":{"lat":34.023424,"lng":-118.475702}},{"partner":"Unlimited Fitness-Redondo Beach","street":"903 N Catalina Ave","city":"Redondo Beach,","zip":90277,"website":"http://www.ufitsb.com","location":{"lat":33.850124,"lng":-118.391529}},{"partner":"YOGAqua","street":"13977 Palawan Way","city":"Marina Del Rey","zip":90292,"website":"http://yogaqua.com/","location":{"lat":33.9823,"lng":-118.456379}},{"partner":"Zumba Santa Monica","street":"1231 4th Street","city":"Santa Monica","zip":90401,"website":"Alejandraortiz.zumba.com","location":{"lat":34.018237,"lng":-118.497289}}]
